ONEWEB-0056             
1 45159U 20008AE  24323.78708347  .00000513  00000+0  14324-2 0  9996
2 45159  87.8889 150.8467 0001655  91.3832 268.7485 13.10367649232825
ONEWEB-0057             
1 45160U 20008AF  24323.79369044 -.00000514  00000+0 -15097-2 0  9997
2 45160  87.8896 150.8516 0001606  87.3313 272.7998 13.10375507232999
ONEWEB-0058             
1 45161U 20008AG  24323.78055486 -.00000558  00000+0 -16357-2 0  9997
2 45161  87.8885 150.8799 0001534  83.4755 276.6547 13.10372234233064
ONEWEB-0059             
1 45162U 20008AH  24323.77709157 -.00000463  00000+0 -13634-2 0  9998
2 45162  87.8890 150.8679 0001475  82.5377 277.5918 13.10369698232962
ONEWEB-0062             
1 45163U 20008AJ  24323.80364741 -.00000284  00000+0 -84919-3 0  9995
2 45163  87.8894 150.8455 0001246  79.0400 281.0868 13.10376811232838
ONEWEB-0065             
1 45164U 20008AK  24323.78206756 -.00000637  00000+0 -18622-2 0  9993
2 45164  87.8895 150.8630 0001630  92.2608 267.8706 13.10370078232527
ONEWEB-0066             
1 45424U 20020A   24323.86905011  .00000429  00000+0  11751-2 0  9998
2 45424  87.8883 135.6897 0001927  83.9165 276.2182 13.11416273227270
ONEWEB-0067             
1 45425U 20020B   24323.75388340 -.00000312  00000+0 -91501-3 0  9992
2 45425  87.8870 135.6548 0001774  89.3428 270.7903 13.11419891227316
